#aV2015 10  2  0  0  0.00000000     288 DD+AD WGS84 FIT  NGA
## 1864 432000.00000000   300.00000000 57297 0.0000000000000
+   31     1  2  3  4  5  6  7  8  9 11 12 13 14 15 16 17 18
+         19 20 21 22 23 24 25 26 27 28 29 30 31 32  0  0  0
+          0  0  0  0  0  0  0  0  0  0  0  0  0  0  0  0  0
+          0  0  0  0  0  0  0  0  0  0  0  0  0  0  0  0  0
+          0  0  0  0  0  0  0  0  0  0  0  0  0  0  0  0  0
++         2  2  2  2  2  2  2  2  2  2  2  2  2  2  2  2  2
++         2  2  2  2  2  2  2  2  2  2  2  2  2  2  0  0  0
++         0  0  0  0  0  0  0  0  0  0  0  0  0  0  0  0  0
++         0  0  0  0  0  0  0  0  0  0  0  0  0  0  0  0  0
++         0  0  0  0  0  0  0  0  0  0  0  0  0  0  0  0  0
%c cc cc ccc ccc cccc cccc cccc cccc ccccc ccccc ccccc ccccc
%c cc cc ccc ccc cccc cccc cccc cccc ccccc ccccc ccccc ccccc
%f  0.0000000  0.000000000  0.00000000000  0.000000000000000
%f  0.0000000  0.000000000  0.00000000000  0.000000000000000
%i    0    0    0    0      0      0      0      0         0
%i    0    0    0    0      0      0      0      0         0
/*      NGA, ST. LOUIS,MO.                                  
/*   EPHEMERIS COMPUTED FROM  1 DAYS OF DATA                
/*   EPOCHA SMOOTHER                                       
/* CCCCCCCCCCCCCCCCCCCCCCCCCCCCCCCCCCCCCCCCCCCCCCCCCCCCCCCCC
*  2015 10  2  1 55  0.00000000
P  1 -13571.280765  10126.832275  20339.967393      1.557817                    
V  1  -2659.028281 -25922.673377  11290.794935      0.007499                    
P  2  13813.615507  15083.156524 -16785.321152    591.186804                    
V  2    249.478493  22034.029913  19126.167991      0.014790                    
P  3 -23047.036862  12869.058645   3060.161611     21.090846                    
V  3   1653.743964  -4492.360448  31399.521477     -0.004841                    
P  4 -15560.505121   -586.237685  21178.303798    -27.112706                    
V  4  -2235.186004 -27693.215694  -2114.385851     -0.045301                    
P  5  18761.292311   3421.263630 -18624.125430   -189.491071                    
V  5 -18541.983625  14523.390330 -15870.256829      0.040079                    
P  6   7649.718885  23944.598628  -8589.280890     68.875604                    
V  6  -1780.915045  11049.787328  29216.462914      0.071741                    
P  7  -6538.825836  23039.647784 -10922.399725    483.749636                    
V  7  -3146.058196 -14062.028119 -27846.777394     -0.007655                    
P  8 -23989.690037  -3088.161018  11000.140938     -7.257554                    
V  8 -11447.540291  -8268.938788 -27408.058356     -0.013347                    
P  9  -8229.925061  12990.234110 -21663.226519     -6.018653                    
V  9 -24674.000204 -12156.444902   2070.092158      0.028366                    
P 11 -15504.804186   5362.344292  20340.718844   -607.661213                    
V 11 -10964.164302 -25107.501547  -1605.726542     -0.023009                    
P 12  23778.099927 -10179.481670   5408.727753    333.168501                    
V 12  -4982.821011   5343.174848  31555.018402      0.033564                    
P 13  23176.417414  12506.024322   2831.164987   -153.521734                    
V 13   1819.949364   4144.357797 -31827.408947     -0.029125                    
P 14  -8087.052889 -18710.513507  17363.307159     30.852387                    
V 14  19257.926089   9637.698781  19492.821473     -0.025997                    
P 15  24166.900998   1285.381857  11216.527862   -274.618186                    
V 15  12022.476076   8337.185981 -26291.386685     -0.020141                    
P 16 -18003.151890  -4201.193442 -19293.216331    -80.745203                    
V 16  20538.259594 -12676.433327 -16116.319926      0.038836                    
P 17   9182.249360  18391.644534  17238.243096   -189.617442                    
V 17 -19210.864706  -9036.895927  20026.279736     -0.012506                    
P 18  11346.598203 -20209.315324  13223.541776    439.013320                    
V 18  15034.446669  -6765.033715 -24459.096785      0.035241                    
P 19 -18215.354648   3982.575887  18880.368224   -520.938009                    
V 19 -20095.749003 -13594.159788 -15905.562545     -0.005394                    
P 20  23003.261539 -11537.288988  -6888.978889    359.814502                    
V 20  -4513.019304   8129.928711 -29263.371521      0.030199                    
P 21   3145.465634 -24987.150006  -7185.064823   -483.788368                    
V 21   4719.259216   9808.820979 -29507.009470     -0.026815                    
P 22  -1718.782765 -17439.960340  20153.819570    396.823944                    
V 22  21419.287589 -13460.483298 -10116.182795      0.035029                    
P 23 -20412.862778   3341.099593 -16733.745504   -136.464634                    
V 23 -18414.244048 -11121.791684  19610.158077     -0.021555                    
P 24  14436.301798  -7170.891297  21050.982335     -5.629209                    
V 24   3060.903842  26704.429607   7142.951988     -0.005603                    
P 25  18478.395306 -17779.659740  -6676.979595    -46.550301                    
V 25   8210.730100  -2779.425615  30741.186933     -0.053048                    
P 26  -9276.542879 -12082.413794 -21758.810083    -70.229022                    
V 26  22827.502076 -15560.352689  -1083.925296     -0.122498                    
P 27 -23824.689394 -11887.538035   -400.448135     24.168443                    
V 27   1505.311144  -2013.122998 -31840.285765      0.030323                    
P 28  -3645.070519  17431.601225  20304.780755    471.489230                    
V 28 -21525.018121  11436.745143 -14203.272801      0.026115                    
P 29  11103.750658 -10620.418292 -21648.244676    637.367100                    
V 29  23769.308318  13795.207759   5456.970401      0.020000                    
P 30   -245.297088  26513.535194   -147.494459     34.164420                    
V 30  -3092.733695   -204.112407 -31667.876043      0.063714                    
P 31  -7174.634255 -23553.498148  -9369.339796    300.783443                    
V 31   2062.655169 -12250.654375  29148.144046     -0.013887                    
P 32 -22716.840244   1910.389528  13112.441870    -26.791759                    
V 32  13362.387363 -10884.221597  25176.281269      0.112164                    
EOF
